[
    {
        "Altitude(m)": 556861.256932648,
        "Argument of Periapsis(deg)": 0.0,
        "Eccentricity": 0.0,
        "Inclination(deg)": 53.0,
        "Latitude(deg)": -13.154168132916459,
        "Longitude(deg)": -145.05634214426465,
        "Mean Anomaly(deg)": -16.363600000000037,
        "RAAN(deg)": 325.0,
        "Satellite Name": "Starlink Shell 1 1451",
        "Satellite Number": 1451,
        "Semi-Major Axis(m)": 6931778.249405717,
        "Time(s)": 0
    },
    {
        "Altitude(m)": 556730.2603912151,
        "Argument of Periapsis(deg)": 0.00034857847951123687,
        "Eccentricity": 0.0,
        "Inclination(deg)": 53.0,
        "Latitude(deg)": -12.658269788841967,
        "Longitude(deg)": -144.70158219714892,
        "Mean Anomaly(deg)": -15.736768796443341,
        "RAAN(deg)": 324.9994812299225,
        "Satellite Name": "Starlink Shell 1 1451",
        "Satellite Number": 1451,
        "Semi-Major Axis(m)": 6931778.249405717,
        "Time(s)": 10
    },
    {
        "Altitude(m)": 556601.4425389073,
        "Argument of Periapsis(deg)": 0.0006971569590224737,
        "Eccentricity": 0.0,
        "Inclination(deg)": 53.0,
        "Latitude(deg)": -12.161752843771604,
        "Longitude(deg)": -144.34833807837987,
        "Mean Anomaly(deg)": -15.109937592886544,
        "RAAN(deg)": 324.9989624598451,
        "Satellite Name": "Starlink Shell 1 1451",
        "Satellite Number": 1451,
        "Semi-Major Axis(m)": 6931778.249405717,
        "Time(s)": 20
    },
    {
        "Altitude(m)": 556474.8428541837,
        "Argument of Periapsis(deg)": 0.0010457354385337105,
        "Eccentricity": 0.0,
        "Inclination(deg)": 53.0,
        "Latitude(deg)": -11.66464384388819,
        "Longitude(deg)": -143.9965445892928,
        "Mean Anomaly(deg)": -14.483106389329848,
        "RAAN(deg)": 324.99844368976756,
        "Satellite Name": "Starlink Shell 1 1451",
        "Satellite Number": 1451,
        "Semi-Major Axis(m)": 6931778.249405717,
        "Time(s)": 30
    },
    {
        "Altitude(m)": 556350.4996829713,
        "Argument of Periapsis(deg)": 0.0013943139180449475,
        "Eccentricity": 0.0,
        "Inclination(deg)": 53.0,
        "Latitude(deg)": -11.166969029667529,
        "Longitude(deg)": -143.64613664607293,
        "Mean Anomaly(deg)": -13.856275185773201,
        "RAAN(deg)": 324.99792491969004,
        "Satellite Name": "Starlink Shell 1 1451",
        "Satellite Number": 1451,
        "Semi-Major Axis(m)": 6931778.249405717,
        "Time(s)": 40
    },
    {
        "Altitude(m)": 556228.4502222869,
        "Argument of Periapsis(deg)": 0.0017428923975561844,
        "Eccentricity": 0.0,
        "Inclination(deg)": 53.0,
        "Latitude(deg)": -10.668754350732092,
        "Longitude(deg)": -143.29705026175859,
        "Mean Anomaly(deg)": -13.229443982216457,
        "RAAN(deg)": 324.99740614961263,
        "Satellite Name": "Starlink Shell 1 1451",
        "Satellite Number": 1451,
        "Semi-Major Axis(m)": 6931778.249405717,
        "Time(s)": 50
    },
    {
        "Altitude(m)": 556108.7305044361,
        "Argument of Periapsis(deg)": 0.002091470877067421,
        "Eccentricity": 0.0,
        "Inclination(deg)": 53.0,
        "Latitude(deg)": -10.170025480438087,
        "Longitude(deg)": -142.9492220154307,
        "Mean Anomaly(deg)": -12.602612778659761,
        "RAAN(deg)": 324.99688737953517,
        "Satellite Name": "Starlink Shell 1 1451",
        "Satellite Number": 1451,
        "Semi-Major Axis(m)": 6931778.249405717,
        "Time(s)": 60
    },
    {
        "Altitude(m)": 555991.3753817966,
        "Argument of Periapsis(deg)": 0.0024400493565786582,
        "Eccentricity": 0.0,
        "Inclination(deg)": 53.0,
        "Latitude(deg)": -9.67080783020588,
        "Longitude(deg)": -142.60258852146902,
        "Mean Anomaly(deg)": -11.975781575103015,
        "RAAN(deg)": 324.99636860945765,
        "Satellite Name": "Starlink Shell 1 1451",
        "Satellite Number": 1451,
        "Semi-Major Axis(m)": 6931778.249405717,
        "Time(s)": 70
    },
    {
        "Altitude(m)": 555876.4185121626,
        "Argument of Periapsis(deg)": 0.002788627836089895,
        "Eccentricity": 0.0,
        "Inclination(deg)": 53.0,
        "Latitude(deg)": -9.171126563604572,
        "Longitude(deg)": -142.2570874117561,
        "Mean Anomaly(deg)": -11.348950371546369,
        "RAAN(deg)": 324.99584983938024,
        "Satellite Name": "Starlink Shell 1 1451",
        "Satellite Number": 1451,
        "Semi-Major Axis(m)": 6931778.249405717,
        "Time(s)": 80
    },
    {
        "Altitude(m)": 555763.8923447137,
        "Argument of Periapsis(deg)": 0.0031372063156011316,
        "Eccentricity": 0.0,
        "Inclination(deg)": 53.0,
        "Latitude(deg)": -8.67100661020584,
        "Longitude(deg)": -141.91265680508542,
        "Mean Anomaly(deg)": -10.722119167989623,
        "RAAN(deg)": 324.9953310693027,
        "Satellite Name": "Starlink Shell 1 1451",
        "Satellite Number": 1451,
        "Semi-Major Axis(m)": 6931778.249405717,
        "Time(s)": 90
    },
    {
        "Altitude(m)": 555653.82810655,
        "Argument of Periapsis(deg)": 0.0034857847951123688,
        "Eccentricity": 0.0,
        "Inclination(deg)": 53.0,
        "Latitude(deg)": -8.170472679219504,
        "Longitude(deg)": -141.5692347766507,
        "Mean Anomaly(deg)": -10.095287964432826,
        "RAAN(deg)": 324.99481229922526,
        "Satellite Name": "Starlink Shell 1 1451",
        "Satellite Number": 1451,
        "Semi-Major Axis(m)": 6931778.249405717,
        "Time(s)": 100
    },
    {
        "Altitude(m)": 555546.2557898586,
        "Argument of Periapsis(deg)": 0.003834363274623606,
        "Eccentricity": 0.0,
        "Inclination(deg)": 53.0,
        "Latitude(deg)": -7.66954927291766,
        "Longitude(deg)": -141.22676034049238,
        "Mean Anomaly(deg)": -9.468456760876181,
        "RAAN(deg)": 324.9942935291478,
        "Satellite Name": "Starlink Shell 1 1451",
        "Satellite Number": 1451,
        "Semi-Major Axis(m)": 6931778.249405717,
        "Time(s)": 110
    },
    {
        "Altitude(m)": 555441.2041396925,
        "Argument of Periapsis(deg)": 0.004182941754134842,
        "Eccentricity": 0.0,
        "Inclination(deg)": 53.0,
        "Latitude(deg)": -7.168260699865499,
        "Longitude(deg)": -140.88517291915392,
        "Mean Anomaly(deg)": -8.841625557319434,
        "RAAN(deg)": 324.9937747590703,
        "Satellite Name": "Starlink Shell 1 1451",
        "Satellite Number": 1451,
        "Semi-Major Axis(m)": 6931778.249405717,
        "Time(s)": 120
    },
    {
        "Altitude(m)": 555338.7006423576,
        "Argument of Periapsis(deg)": 0.004531520233646079,
        "Eccentricity": 0.0,
        "Inclination(deg)": 53.0,
        "Latitude(deg)": -6.666631087969323,
        "Longitude(deg)": -140.54441181342233,
        "Mean Anomaly(deg)": -8.214794353762738,
        "RAAN(deg)": 324.9932559889928,
        "Satellite Name": "Starlink Shell 1 1451",
        "Satellite Number": 1451,
        "Semi-Major Axis(m)": 6931778.249405717,
        "Time(s)": 130
    },
    {
        "Altitude(m)": 555238.7715144459,
        "Argument of Periapsis(deg)": 0.0048800987131573164,
        "Eccentricity": 0.0,
        "Inclination(deg)": 53.0,
        "Latitude(deg)": -6.164684397348656,
        "Longitude(deg)": -140.20441718502474,
        "Mean Anomaly(deg)": -7.5879631502060425,
        "RAAN(deg)": 324.9927372189154,
        "Satellite Name": "Starlink Shell 1 1451",
        "Satellite Number": 1451,
        "Semi-Major Axis(m)": 6931778.249405717,
        "Time(s)": 140
    },
    {
        "Altitude(m)": 555141.4416924637,
        "Argument of Periapsis(deg)": 0.005228677192668553,
        "Eccentricity": 0.0,
        "Inclination(deg)": 53.0,
        "Latitude(deg)": -5.662444433051765,
        "Longitude(deg)": -139.86512952653155,
        "Mean Anomaly(deg)": -6.961131946649347,
        "RAAN(deg)": 324.9922184488379,
        "Satellite Name": "Starlink Shell 1 1451",
        "Satellite Number": 1451,
        "Semi-Major Axis(m)": 6931778.249405717,
        "Time(s)": 150
    },
    {
        "Altitude(m)": 555046.7348231769,
        "Argument of Periapsis(deg)": 0.00557725567217979,
        "Eccentricity": 0.0,
        "Inclination(deg)": 53.0,
        "Latitude(deg)": -5.159934857621708,
        "Longitude(deg)": -139.5264891313375,
        "Mean Anomaly(deg)": -6.334300743092651,
        "RAAN(deg)": 324.99169967876037,
        "Satellite Name": "Starlink Shell 1 1451",
        "Satellite Number": 1451,
        "Semi-Major Axis(m)": 6931778.249405717,
        "Time(s)": 160
    },
    {
        "Altitude(m)": 554954.673254495,
        "Argument of Periapsis(deg)": 0.0059258341516910265,
        "Eccentricity": 0.0,
        "Inclination(deg)": 53.0,
        "Latitude(deg)": -4.657179203523683,
        "Longitude(deg)": -139.18843707658996,
        "Mean Anomaly(deg)": -5.707469539535855,
        "RAAN(deg)": 324.99118090868296,
        "Satellite Name": "Starlink Shell 1 1451",
        "Satellite Number": 1451,
        "Semi-Major Axis(m)": 6931778.249405717,
        "Time(s)": 170
    },
    {
        "Altitude(m)": 554865.2780270942,
        "Argument of Periapsis(deg)": 0.006274412631202263,
        "Eccentricity": 0.0,
        "Inclination(deg)": 53.0,
        "Latitude(deg)": -4.154200885449751,
        "Longitude(deg)": -138.8509146933142,
        "Mean Anomaly(deg)": -5.08063833597916,
        "RAAN(deg)": 324.9906621386055,
        "Satellite Name": "Starlink Shell 1 1451",
        "Satellite Number": 1451,
        "Semi-Major Axis(m)": 6931778.249405717,
        "Time(s)": 180
    }
]